{"fetched_at":"2026-03-29T16:36:15Z","count":15609,"tles":[{"name":"STARLINK-5454","line1":"1 54774U 22175S   26087.89574751  .00001391  00000+0  10548-3 0  9997","line2":"2 54774  53.2179 302.5845 0001409  88.7081 271.4072 15.08841655183030","category":"Starlink"}]}