{
  "norad_id": 54774,
  "name": "STARLINK-5454",
  "history": [
    {
      "epoch": "2026-03-28T21:29:52.584864",
      "apogee_km": 540.7131281086131,
      "perigee_km": 538.763532483028,
      "latitude_deg": 16.066251782607175,
      "longitude_deg": 103.39176095975563,
      "semi_major_axis_km": 6917.87533029582,
      "eccentricity": 0.00014091,
      "inclination_deg": 53.2179,
      "raan_deg": 302.5845,
      "arg_perigee_deg": 88.7081,
      "mean_anomaly_deg": 271.4072,
      "mean_motion_rev_day": 15.08841655
    }
  ]
}